NORAD_CAT_ID,OBJECT_NAME,OBJECT_TYPE,EPOCH,MEAN_MOTION,ECCENTRICITY,INCLINATION,RA_OF_ASC_NODE,ARG_OF_PERICENTER,MEAN_ANOMALY,BSTAR,MEAN_MOTION_DOT,MEAN_MOTION_DDOT,TLE_LINE0,TLE_LINE1,TLE_LINE2,SEMIMAJOR_AXIS,PERIOD,APOGEE,PERIGEE,DECAYED
55309.0,STARLINK-5315,PAYLOAD,2024-06-23 21:59:05,14.98331329,0.0002915,69.9993,137.3465,265.9399,94.1427,4.7855e-05,4.78e-06,0.0,0 STARLINK-5315,1 55309U 23010AS  24175.91604071  .00000478  00000-0  47855-4 0  9997,2 55309  69.9993 137.3465 0002915 265.9399  94.1427 14.98331329 80332,6950.189,96.107,574.08,570.028,0.0
55309.0,STARLINK-5315,PAYLOAD,2024-06-24 04:23:38,14.9833177,0.0002913,69.9992,136.6734,265.4042,94.6785,5.0252e-05,5.07e-06,0.0,0 STARLINK-5315,1 55309U 23010AS  24176.18308008  .00000507  00000-0  50252-4 0  9996,2 55309  69.9992 136.6734 0002913 265.4042  94.6785 14.98331770 80062,6950.187,96.107,574.077,570.028,0.0
55309.0,STARLINK-5315,PAYLOAD,2024-06-24 07:35:54,14.98333432,0.0002891,69.9993,136.3367,265.2175,94.8654,6.7445e-05,7.12e-06,0.0,0 STARLINK-5315,1 55309U 23010AS  24176.31659824  .00000712  00000-0  67445-4 0  9996,2 55309  69.9993 136.3367 0002891 265.2175  94.8654 14.98333432 80392,6950.182,96.107,574.057,570.038,0.0
55309.0,STARLINK-5315,PAYLOAD,2024-06-24 22:01:07,14.98329807,0.0002733,69.9996,134.822,265.6723,94.4124,-2.0181e-05,-3.34e-06,0.0,0 STARLINK-5315,1 55309U 23010AS  24176.91744251 -.00000334  00000-0 -20181-4 0  9999,2 55309  69.9996 134.8220 0002733 265.6723  94.4124 14.98329807 80483,6950.193,96.107,573.958,570.159,0.0
55309.0,STARLINK-5315,PAYLOAD,2024-06-25 04:25:39,14.98330127,0.0002726,69.9996,134.1487,265.5723,94.5125,-1.4345e-05,-2.64e-06,0.0,0 STARLINK-5315,1 55309U 23010AS  24177.18448205 -.00000264  00000-0 -14345-4 0  9996,2 55309  69.9996 134.1487 0002726 265.5723  94.5125 14.98330127 80212,6950.192,96.107,573.952,570.163,0.0
55309.0,STARLINK-5315,PAYLOAD,2024-06-25 07:37:55,14.9833107,0.0002713,69.9997,133.8122,264.9742,95.1107,-4.1779e-06,-1.43e-06,0.0,0 STARLINK-5315,1 55309U 23010AS  24177.31800104 -.00000143  00000-0 -41779-5 0  9999,2 55309  69.9997 133.8122 0002713 264.9742  95.1107 14.98331070 80546,6950.19,96.107,573.94,570.169,0.0
55309.0,STARLINK-5315,PAYLOAD,2024-06-25 22:03:07,14.98333676,0.0002676,69.9997,132.2977,259.3979,100.6879,1.58e-05,9.6e-07,0.0,0 STARLINK-5315,1 55309U 23010AS  24177.91883737  .00000096  00000-0  15800-4 0  9998,2 55309  69.9997 132.2977 0002676 259.3979 100.6879 14.98333676 80637,6950.182,96.107,573.906,570.187,0.0
55309.0,STARLINK-5315,PAYLOAD,2024-06-26 04:27:39,14.98334987,0.0002658,69.9998,131.6243,258.6059,101.4801,3.2938e-05,3e-06,0.0,0 STARLINK-5315,1 55309U 23010AS  24178.18587539  .00000300  00000-0  32938-4 0  9998,2 55309  69.9998 131.6243 0002658 258.6059 101.4801 14.98334987 80368,6950.177,96.107,573.89,570.195,0.0
55309.0,STARLINK-5315,PAYLOAD,2024-06-26 06:03:47,14.98335313,0.0002656,69.9998,131.456,258.8876,101.1985,3.6079e-05,3.38e-06,0.0,0 STARLINK-5315,1 55309U 23010AS  24178.25263490  .00000338  00000-0  36079-4 0  9994,2 55309  69.9998 131.4560 0002656 258.8876 101.1985 14.98335313 80684,6950.176,96.107,573.887,570.195,0.0
55309.0,STARLINK-5315,PAYLOAD,2024-06-27 04:29:41,14.98322751,0.0002571,70.0001,129.0984,264.314,95.7726,-3.741e-05,-5.39e-06,0.0,0 STARLINK-5315,1 55309U 23010AS  24179.18728625 -.00000539  00000-0 -37410-4 0  9998,2 55309  70.0001 129.0984 0002571 264.3140  95.7726 14.98322751 80512,6950.215,96.107,573.867,570.293,0.0
55309.0,STARLINK-5315,PAYLOAD,2024-06-27 22:07:09,14.98331842,0.0002895,69.9995,127.2464,269.8318,90.251,-3.8711e-05,-5.55e-06,0.0,0 STARLINK-5315,1 55309U 23010AS  24179.92164158 -.00000555  00000-0 -38711-4 0  9998,2 55309  69.9995 127.2464 0002895 269.8318  90.2510 14.98331842 80938,6950.187,96.107,574.064,570.04,0.0
55309.0,STARLINK-5315,PAYLOAD,2024-06-28 04:31:41,14.98333902,0.0002962,69.9992,126.5722,267.9086,92.1734,-1.1932e-05,-2.35e-06,0.0,0 STARLINK-5315,1 55309U 23010AS  24180.18867899 -.00000235  00000-0 -11932-4 0  9991,2 55309  69.9992 126.5722 0002962 267.9086  92.1734 14.98333902 80668,6950.181,96.107,574.104,569.987,0.0
55309.0,STARLINK-5315,PAYLOAD,2024-06-28 14:08:29,14.98338328,0.0002984,69.9994,125.5624,267.7827,92.299,2.173e-05,1.66e-06,0.0,0 STARLINK-5315,1 55309U 23010AS  24180.58923415  .00000166  00000-0  21730-4 0  9990,2 55309  69.9994 125.5624 0002984 267.7827  92.2990 14.98338328 81039,6950.167,96.106,574.106,569.958,0.0
55309.0,STARLINK-5315,PAYLOAD,2024-06-28 22:09:10,14.98335847,0.0003037,69.9994,124.7208,268.1664,91.9147,0.0001097,1.216e-05,0.0,0 STARLINK-5315,1 55309U 23010AS  24180.92303297  .00001216  00000-0  10970-3 0  9998,2 55309  69.9994 124.7208 0003037 268.1664  91.9147 14.98335847 81080,6950.175,96.107,574.151,569.929,0.0
55309.0,STARLINK-5315,PAYLOAD,2024-06-29 04:33:41,14.9834293,0.0003038,69.9994,124.0486,269.8498,90.2313,0.00018474,2.113e-05,0.0,0 STARLINK-5315,1 55309U 23010AS  24181.19006538  .00002113  00000-0  18474-3 0  9990,2 55309  69.9994 124.0486 0003038 269.8498  90.2313 14.98342930 80813,6950.153,96.106,574.129,569.906,0.0
55309.0,STARLINK-5315,PAYLOAD,2024-06-29 06:09:49,14.9834466,0.0003029,69.9994,123.8802,269.8263,90.2548,0.00020013,2.297e-05,0.0,0 STARLINK-5315,1 55309U 23010AS  24181.25682338  .00002297  00000-0  20013-3 0  9990,2 55309  69.9994 123.8802 0003029 269.8263  90.2548 14.98344660 81130,6950.148,96.106,574.118,569.907,0.0
55309.0,STARLINK-5315,PAYLOAD,2024-06-29 18:58:55,14.98321291,0.0003229,69.9993,122.5327,266.2389,93.8401,-6.9117e-05,-9.17e-06,0.0,0 STARLINK-5315,1 55309U 23010AS  24181.79092475 -.00000917  00000-0 -69117-4 0  9994,2 55309  69.9993 122.5327 0003229 266.2389  93.8401 14.98321291 80905,6950.22,96.108,574.329,569.841,0.0
55309.0,STARLINK-5315,PAYLOAD,2024-06-29 22:11:11,14.98323106,0.0002925,69.9992,122.1972,269.5063,90.576,-5.0953e-05,-7.01e-06,0.0,0 STARLINK-5315,1 55309U 23010AS  24181.92444403 -.00000701  00000-0 -50953-4 0  9990,2 55309  69.9992 122.1972 0002925 269.5063  90.5760 14.98323106 81239,6950.214,96.107,574.112,570.046,0.0
55309.0,STARLINK-5315,PAYLOAD,2024-06-30 06:11:52,14.98328698,0.0002886,69.9994,121.3557,270.5957,89.4872,-5.8262e-05,-7.88e-06,0.0,0 STARLINK-5315,1 55309U 23010AS  24182.25824162 -.00000788  00000-0 -58262-4 0  9997,2 55309  69.9994 121.3557 0002886 270.5957  89.4872 14.98328698 80973,6950.197,96.107,574.068,570.056,0.0
55309.0,STARLINK-5315,PAYLOAD,2024-06-30 22:13:12,14.9833406,0.0002803,69.9998,119.6725,270.5765,89.5073,-6.1267e-05,-8.24e-06,0.0,0 STARLINK-5315,1 55309U 23010AS  24182.92583838 -.00000824  00000-0 -61267-4 0  9993,2 55309  69.9998 119.6725 0002803 270.5765  89.5073 14.98334060 81380,6950.18,96.107,573.993,570.097,0.0
55309.0,STARLINK-5315,PAYLOAD,2024-07-01 12:38:25,14.98331207,0.000282,69.9998,118.1577,272.4777,87.6059,-0.0001279,-1.619e-05,0.0,0 STARLINK-5315,1 55309U 23010AS  24183.52668152 -.00001619  00000-0 -12790-3 0  9992,2 55309  69.9998 118.1577 0002820 272.4777  87.6059 14.98331207 81161,6950.189,96.107,574.014,570.094,0.0
55309.0,STARLINK-5315,PAYLOAD,2024-07-01 22:15:13,14.98325613,0.0002823,69.9994,117.1473,274.4753,85.6083,9.4049e-05,1.029e-05,0.0,0 STARLINK-5315,1 55309U 23010AS  24183.92724091  .00001029  00000-0  94049-4 0  9992,2 55309  69.9994 117.1473 0002823 274.4753  85.6083 14.98325613 81530,6950.206,96.107,574.034,570.109,0.0
55309.0,STARLINK-5315,PAYLOAD,2024-07-02 04:39:45,14.98332959,0.0002705,69.9997,116.4746,272.4642,87.6207,0.00017514,1.997e-05,0.0,0 STARLINK-5315,1 55309U 23010AS  24184.19427441  .00001997  00000-0  17514-3 0  9996,2 55309  69.9997 116.4746 0002705 272.4642  87.6207 14.98332959 81263,6950.184,96.107,573.929,570.169,0.0
55309.0,STARLINK-5315,PAYLOAD,2024-07-02 12:40:26,14.98326898,0.0002682,69.9996,115.633,272.4925,87.5927,3.4656e-05,3.21e-06,0.0,0 STARLINK-5315,1 55309U 23010AS  24184.52808185  .00000321  00000-0  34656-4 0  9998,2 55309  69.9996 115.6330 0002682 272.4925  87.5927 14.98326898 81319,6950.202,96.107,573.932,570.203,0.0
55309.0,STARLINK-5315,PAYLOAD,2024-07-02 22:17:14,14.98327395,0.0002719,69.9994,114.6225,270.4433,89.6415,-3.5444e-05,-5.16e-06,0.0,0 STARLINK-5315,1 55309U 23010AS  24184.92864399 -.00000516  00000-0 -35444-4 0  9995,2 55309  69.9994 114.6225 0002719 270.4433  89.6415 14.98327395 81680,6950.201,96.107,573.956,570.176,0.0
55309.0,STARLINK-5315,PAYLOAD,2024-07-03 12:42:27,14.98326952,0.000274,70.0,113.1081,275.0438,85.0408,9.135e-05,9.97e-06,0.0,0 STARLINK-5315,1 55309U 23010AS  24185.52948136  .00000997  00000-0  91350-4 0  9993,2 55309  70.0000 113.1081 0002740 275.0438  85.0408 14.98326952 81461,6950.202,96.107,573.972,570.163,0.0
55309.0,STARLINK-5315,PAYLOAD,2024-07-03 22:19:15,14.9832963,0.0002801,69.9997,112.0983,273.4851,86.5988,5.1541e-06,-3.1e-07,0.0,0 STARLINK-5315,1 55309U 23010AS  24185.93004171 -.00000031  00000-0  51541-5 0  9999,2 55309  69.9997 112.0983 0002801 273.4851  86.5988 14.98329630 81837,6950.194,96.107,574.006,570.112,0.0
55309.0,STARLINK-5315,PAYLOAD,2024-07-04 12:44:27,14.98334692,0.0002821,69.9999,110.5836,275.2371,84.8466,-3.7488e-05,-5.4e-06,0.0,0 STARLINK-5315,1 55309U 23010AS  24186.53087786 -.00000540  00000-0 -37488-4 0  9998,2 55309  69.9999 110.5836 0002821 275.2371  84.8466 14.98334692 81610,6950.178,96.107,574.004,570.083,0.0
55309.0,STARLINK-5315,PAYLOAD,2024-07-04 22:21:16,14.98327275,0.0002864,70.0001,109.5734,270.1931,89.89,8.0264e-05,8.65e-06,0.0,0 STARLINK-5315,1 55309U 23010AS  24186.93143959  .00000865  00000-0  80264-4 0  9995,2 55309  70.0001 109.5734 0002864 270.1931  89.8900 14.98327275 81982,6950.201,96.107,574.057,570.076,0.0
55309.0,STARLINK-5315,PAYLOAD,2024-07-05 12:46:28,14.98332115,0.0002757,70.0001,108.0577,265.9307,94.1537,7.4172e-06,-4e-08,0.0,0 STARLINK-5315,1 55309U 23010AS  24187.53227704 -.00000004  00000-0  74172-5 0  9991,2 55309  70.0001 108.0577 0002757 265.9307  94.1537 14.98332115 81761,6950.186,96.107,573.968,570.135,0.0
